{
  "type": "FeatureCollection",
  "features": [
    {
      "type": "Feature",
      "properties": {
        "norad_id": 64202,
        "name": "GPS BIII-8  (PRN 21)",
        "group": "gnss",
        "lat": -12.38500824847321,
        "lon": -132.3776094717492,
        "alt_km": 20189.764270993226,
        "timestamp": "2025-12-08T21:31:04.912130+00:00",
        "meta_object_name": "GPS BIII-8  (PRN 21)",
        "meta_object_id": "2025-116A",
        "meta_epoch": "2025-12-08T05:53:38.601888",
        "meta_mean_motion": 2.0055836,
        "meta_eccentricity": 0.00052097,
        "meta_inclination": 55.1026,
        "meta_ra_of_asc_node": 38.8223,
        "meta_arg_of_pericenter": 307.4427,
        "meta_mean_anomaly": 137.7304,
        "meta_ephemeris_type": 0,
        "meta_classification_type": "U",
        "meta_norad_cat_id": 64202,
        "meta_element_set_no": 999,
        "meta_rev_at_epoch": 404,
        "meta_bstar": 0,
        "meta_mean_motion_dot": -7.9e-07,
        "meta_mean_motion_ddot": 0,
        "tle_line1": "1 64202U 25116A   25342.24558567 -.00000079  00000+0  00000+0 0  9992",
        "tle_line2": "2 64202  55.1026  38.8223 0005209 307.4427 137.7304  2.00558360  4046"
      },
      "geometry": {
        "type": "Point",
        "coordinates": [
          -132.3776094717492,
          -12.38500824847321
        ]
      }
    },
    {
      "type": "Feature",
      "properties": {
        "norad_id": 65590,
        "name": "COSMOS 2596 (708K)",
        "group": "gnss",
        "lat": -27.35298349187584,
        "lon": -52.53467245068125,
        "alt_km": 19101.223319865,
        "timestamp": "2025-12-08T21:31:04.912142+00:00",
        "meta_object_name": "COSMOS 2596 (708K)",
        "meta_object_id": "2025-206B",
        "meta_epoch": "2025-12-08T14:54:31.099392",
        "meta_mean_motion": 2.13100258,
        "meta_eccentricity": 0.00139967,
        "meta_inclination": 64.7466,
        "meta_ra_of_asc_node": 321.6168,
        "meta_arg_of_pericenter": 305.3279,
        "meta_mean_anomaly": 172.7961,
        "meta_ephemeris_type": 0,
        "meta_classification_type": "U",
        "meta_norad_cat_id": 65590,
        "meta_element_set_no": 999,
        "meta_rev_at_epoch": 185,
        "meta_bstar": 0,
        "meta_mean_motion_dot": -5.1e-07,
        "meta_mean_motion_ddot": 0,
        "tle_line1": "1 65590U 25206B   25342.62119328 -.00000051  00000+0  00000+0 0  9993",
        "tle_line2": "2 65590  64.7466 321.6168 0013996 305.3279 172.7961  2.13100258  1853"
      },
      "geometry": {
        "type": "Point",
        "coordinates": [
          -52.53467245068125,
          -27.35298349187584
        ]
      }
    }
  ]
}